#cP2024  9 19 18  0  0.00000000     576   u+U IGS20 FIT  WHU
## 2332 410400.00000000   300.00000000 60572 0.7500000000000
+   77   G01G02G03G04G05G06G07G08G09G10G11G12G13G14G15G16G18
+        G19G20G21G22G23G24G25G26G27G28G29G30G31G32R01R02R03
+        R04R05R07R08R09R11R12R14R15R16R17R18R19R20R21R22R24
+        E02E03E04E05E06E07E08E09E10E11E12E13E14E15E18E19E21
+        E24E25E26E27E30E31E33E34E36  0  0  0  0  0  0  0  0
++         5  5  5  5  5  6  5  5  5  4  5  4  5  5  5  5  5
++         5  5  5  4  4  5  5  5  5  5  5  5  6  5  5  5  5
++         6  4  6  5  5  6  6  6  6  6  5  5  7  6  5  6  6
++         5  5  6  5  5  6  6  5  6  6  5  5  6  5  5  6  5
++         6  5  5  5  5  5  5  5  6  0  0  0  0  0  0  0  0
%c M  cc GPS ccc cccc cccc cccc cccc ccccc ccccc ccccc ccccc
%c cc cc ccc ccc cccc cccc cccc cccc ccccc ccccc ccccc ccccc
%f  0.0000000  0.000000000  0.00000000000  0.000000000000000
%f  0.0000000  0.000000000  0.00000000000  0.000000000000000
%i    0    0    0    0      0      0      0      0         0
%i    0    0    0    0      0      0      0      0         0
/* GNSS RESEARCH CENTER, WUHAN UNIVERSITY (WHU), P. R. CHINA
/* POSITION AND NAVIGATION DATA ANALYST (PANDA) SOFTWARE    
/* PCV:IGS20_2330 OL/AL:FES2004  NONE     NN ORB:CoM CLK:CoN
/*
*  2024  9 21  6  0  0.00000000
PG01   4103.632737  15613.982004 -21418.485327 999999.999999               P   P
PG02  14593.523558  -4909.325987  22094.140086   -353.630886               P   P
PG03  22912.889711 -12497.818901   4426.646755    544.982740               P   P
PG04  20467.029957  -2699.817862 -16778.584608    447.592752               P   P
PG05 -19787.041750     -9.604596 -17934.159832   -187.284585               P   P
PG06  -5177.848478 -25515.395559  -4892.974127     16.308766               P   P
PG07   7159.890217 -21595.848421 -12786.497996    -35.439240               P   P
PG08  25341.572689   5368.262855   6709.709696    359.577946               P   P
PG09  11234.209214 -11421.235390 -21285.159805    365.463024               P   P
PG10  -1723.396956  17465.280161  20039.366513   -132.184975               P   P
PG11 -12542.696572 -16022.066175 -17076.794972   -736.837073               P   P
PG12 -23922.049833   8637.942966   7289.761763   -539.596073               P   P
PG13 -22665.697942 -14065.624693    700.074243    677.593435               P   P
PG14   5752.269618 -19112.533735  17457.619351    500.313860               P   P
PG15 -25618.730534  -2295.990928   6436.027371    206.722139               P   P
PG16  17422.312844   5740.483432 -19699.711608   -175.394313               P   P
PG18  -6999.095487  22118.168210 -12703.090012   -654.502974               P   P
PG19 -13778.915146 -18703.884546  13103.742327    540.771303               P   P
PG20 -12397.856785  -9130.423005 -21563.438721    370.425997               P   P
PG21  15868.709286   2484.078691  21693.821303    101.338131               P   P
PG22  -1764.464838 -16275.103837  21378.089274    -63.900807               P   P
PG23 -13994.339217  19636.898382  10905.753747    324.808723               P   P
PG24 -15349.159019   2627.970060  21073.221230   -486.473585               P   P
PG25 -19478.515520  17552.072365  -3573.150881    499.629444               P   P
PG26   7568.503567  14279.071019 -21203.400298     74.126309               P   P
PG27  23074.585131  13185.982768  -3679.012911    -33.896617               P   P
PG28   5027.500401  25956.999149  -2534.299889   -418.790429               P   P
PG29 -14380.131037   8335.627498 -20788.260478   -576.481766               P   P
PG30    211.522710 -26144.844803  -3611.824784   -317.325738               P   P
PG31  11297.132574  19505.520273 -13971.640344   -224.434361               P   P
PG32   7723.675373  17640.083939  18595.311934   -595.095910               P   P
PR01   3976.602951 -10681.929921 -22824.824275     98.488474               P   P
PR02 -14020.332591  -9856.430904 -18825.002482    -24.757378               P   P
PR03 -24900.271548  -3533.122965  -4014.392798    107.962194               P   P
PR04 -21834.861893   4124.201976  12529.863931    255.691276               P   P
PR05  -7183.019620   9810.089132  22423.276341    137.980887               P   P
PR07  25067.655521   3364.941320   3564.564481     91.333881               P   P
PR08  21728.378807  -4432.451695 -12588.615798     -6.397981               P   P
PR09   2302.065365  15339.851602 -20254.537149    210.334603               P   P
PR11  16666.299602 -14600.444844 -12609.021222     11.306622               P   P
PR12  10754.316857 -22143.281222   6735.212050     45.097020               P   P
PR14 -12935.616857    313.400933  22001.463871     26.955931               P   P
PR15 -16785.537318  15684.662538  11117.797923     75.677017               P   P
PR16 -10856.419499  22165.248043  -6505.212099     29.316792               P   P
PR17 -14509.533604 -11462.475490 -17586.075486    123.882221               P   P
PR18  -9313.261325   4899.216403 -23217.785152    163.096879               P   P
PR19  -1253.389894  17733.113934 -18282.513138   -292.116203               P   P
PR20  10453.800731  23265.178984    970.257837   -119.391514               P   P
PR21  14390.103761  12195.308783  17154.902625   -136.233763               P   P
PR22   9264.451017  -6029.219889  23017.132353     41.738090               P   P
PR24 -11739.609547 -22616.574799  -1433.802792    -72.867630               P   P
PE02 -20345.702636  19589.864111  -8834.557990    160.936358               P   P
PE03 -11607.326373  12790.924761  24028.375275   -141.791776               P   P
PE04  -9783.606393 -20356.009058 -19134.974630    -38.187469               P   P
PE05 -25624.862520  -2101.411846  14666.678610   4786.064209               P   P
PE06 -18717.148770 -19620.144352 -11882.755352    -27.993167               P   P
PE07  24607.267683  16032.165100   3642.227231   -143.195410               P   P
PE08   8971.704368  20179.285189  19696.304352   -338.970829               P   P
PE09 -24583.291404 -16073.624171  -3741.356008   -597.531150               P   P
PE10  -8513.164419 -25677.888018 -12036.818499   -658.066934               P   P
PE11 -13358.572217 -17346.522504 -19928.340873   1584.211056               P   P
PE12  -2977.341794 -29256.522300  -3347.603129  -1219.097001               P   P
PE13  13099.667144  17889.874469  19612.579480    -24.990434               P   P
PE14 -30334.644181  -8666.376632  -7577.532902    240.336542               P   P
PE15   2575.171570  29363.131192   2695.146929   -128.411472               P   P
PE18  21828.351716   5374.644538   6754.207536    571.277658               P   P
PE19  13437.723549 -11368.103818 -23797.490928    655.304521               P   P
PE21  26669.414489  -8809.404597  -9341.068613   -618.029537               P   P
PE24 -17416.218983  -7795.852476  22614.562988   -999.292544               P   P
PE25 -26639.582971   8457.992140   9750.873035      9.299922               P   P
PE26  15883.762191  -4424.182879  24589.717740   -263.144258               P   P
PE27  17542.716280   7584.780659 -22599.276783   -457.911462               P   P
PE30  -1806.117207  19328.420507 -22347.627817   -738.734363               P   P
PE31   1810.645189 -19307.417446  22374.650904    -36.592078               P   P
PE33   9534.077990 -23091.822867  15892.450633     15.443854               P   P
PE34  -9264.769222  23414.150801 -15546.449785   -135.554201               P   P
PE36 -15776.687604   3779.265091 -24754.314683   -286.270993               P   P
EOF
